{"type": "Feature", "properties": {"ac_no": 178, "name": "Mokama", "district": "Patna", "state": "Bihar", "pc_no": 28, "pc_name": "MUNGER", "source": "DataMeet Bihar Mokama UNION booth convex hull buffer (~2.5 km) — diyara/SE pins inside", "license": "CC-BY DataMeet base + KshetraMap booth envelope", "method": "unary_union(datameet_poly, MultiPoint(booths).convex_hull.buffer(0.0225))", "buffer_deg": 0.0225, "min_edge_clearance_m": 2494.2, "booths_inside": 342, "note": "Not official ECI cadastral boundary. Expanded so field pins (Darwe Bhadaur, Karakayana, etc.) sit inside the visual AC mask."}, "geometry": {"type": "Polygon", "coordinates": [[[85.72187958052312, 25.51449875551308], [85.73105334740687, 25.522351593569127], [85.7351931546251, 25.524755449479084], [85.76141999408667, 25.54237585210707], [85.7814125073615, 25.54807706140319], [85.7985657788279, 25.54622494063128], [85.80952943221006, 25.544241436687894], [85.83732679952321, 25.526530469303523], [85.83820772660692, 25.51813391366997], [85.83870545068626, 25.51737026610612], [85.88924792638846, 25.5000011752909], [85.89198973059229, 25.479823933837867], [85.90532504599229, 25.46060475271621], [86.03117580184556, 25.39049218899864], [86.03226117099909, 25.39068108596199], [86.03266715262365, 25.392011139261612], [86.0467819408656, 25.39159278044895], [86.05379575001838, 25.376966033786307], [86.06870882830167, 25.36510466205872], [86.07282159574457, 25.359772746701253], [86.07515173704066, 25.35355971867543], [86.07564870233418, 25.34907207985266], [86.07473442216856, 25.34249976157933], [86.0730546699565, 25.338362053969554], [86.03636463583155, 25.283031877552823], [86.03126776098462, 25.27844973734696], [86.02507645895864, 25.27562845373683], [85.85861903762131, 25.246062030947655], [85.74765834881585, 25.247697575396774], [85.7431487648443, 25.24822526303387], [85.7388709967882, 25.249631107353135], [85.73322733455093, 25.253224672269308], [85.7301357134908, 25.256515639483748], [85.68603446147847, 25.314170935730186], [85.6827177769004, 25.320262275442364], [85.68141230152548, 25.327086830467866], [85.68626308154644, 25.397506462896658], [85.68769469899541, 25.40397276630606], [85.73547942994072, 25.499844706858482], [85.73839901011476, 25.503533947372496], [85.74393434780407, 25.50767543812536], [85.74824786143506, 25.509420854938945], [85.75555964351574, 25.511028834732198], [85.75768051851828, 25.52176422510526], [85.75705543734594, 25.522488674455218], [85.75619078874335, 25.522411575795957], [85.7292927388798, 25.50636595594618], [85.72187958052312, 25.51449875551308]]]}}